GLOBALSTAR M001         
1 25162U 98008A   25055.44879059 -.00000050  00000+0  35651-3 0  9992
2 25162  52.0040 301.3619 0002081  33.6700 137.7246 12.38207634229742
GLOBALSTAR M004         
1 25163U 98008B   25055.24806001 -.00000046  00000+0  32150-3 0  9994
2 25163  52.0015  38.6989 0003272  43.7413 329.9276 12.63388690247413
GLOBALSTAR M002         
1 25164U 98008C   25055.60216701 -.00000084  00000+0 -14852-3 0  9999
2 25164  52.0005 162.4917 0000533 293.8405  66.2359 11.61508197170989
GLOBALSTAR M003         
1 25165U 98008D   25055.57372149 -.00000043  00000+0  49400-3 0  9996
2 25165  51.9990 120.4094 0008290  69.4746  74.9350 12.12072703219565
GLOBALSTAR M014         
1 25306U 98023A   25055.54101358 -.00000065  00000+0  23839-3 0  9991
2 25306  51.9830  88.2380 0001362 148.6033  19.5720 11.65478339178030
GLOBALSTAR M006         
1 25307U 98023B   25055.51002957 -.00000084  00000+0 -17613-3 0  9999
2 25307  51.9930 136.5790 0003032 251.2607 209.3854 11.58172437203777
GLOBALSTAR M015         
1 25308U 98023C   25055.64597539 -.00000057  00000+0  37853-3 0  9996
2 25308  51.9790 229.5536 0011905 232.5199 219.3122 11.48858566181147
GLOBALSTAR M008         
1 25309U 98023D   25055.60004602 -.00000071  00000+0  19481-3 0  9990
2 25309  51.9963 164.4729 0001786 300.0662 161.2300 12.36063190223928
